start=new Date('2022-03-04T00:00:00.000Z').valueOf();
sats=[{"TIME_SYSTEM":"UTC","RA_OF_ASC_NODE":"339.2703","ELEMENT_SET_NO":"999","NORAD_CAT_ID":"47803","EPOCH":"2022-03-03T05:42:48.377952","PERIOD":"95.592","CENTER_NAME":"EARTH","MEAN_ELEMENT_THEORY":"SGP4","REV_AT_EPOCH":"5569","MEAN_MOTION_DDOT":"0.0000000000000","INCLINATION":"53.0561","APOAPSIS":"548.578","MEAN_ANOMALY":"301.5261","LAUNCH_DATE":"2021-03-11","TLE_LINE1":"1 47803U 21018S   22062.23805993  .00000113  00000-0  26527-4 0  9996","DECAY_DATE":null,"COUNTRY_CODE":"US","REF_FRAME":"TEME","RCS_SIZE":"LARGE","OBJECT_TYPE":"PAYLOAD","CLASSIFICATION_TYPE":"U","EPHEMERIS_TYPE":"0","SITE":"AFETR","PERIAPSIS":"545.849","TLE_LINE2":"2 47803  53.0561 339.2703 0001970  58.5920 301.5261 15.06400012 55699","GP_ID":"197707921","MEAN_MOTION":"15.06400012","FILE":"3342689","BSTAR":"0.00002652700000","OBJECT_NAME":"STARLINK-2384","ECCENTRICITY":"0.00019700","MEAN_MOTION_DOT":"0.00000113","SEMIMAJOR_AXIS":"6925.349","ARG_OF_PERICENTER":"58.5920","OBJECT_ID":"2021-018S"},{"EPHEMERIS_TYPE":"0","CLASSIFICATION_TYPE":"U","OBJECT_TYPE":"PAYLOAD","RCS_SIZE":"LARGE","TLE_LINE1":"1 47804U 21018T   22062.91627736  .00000105  00000-0  25983-4 0  9995","COUNTRY_CODE":"US","DECAY_DATE":null,"LAUNCH_DATE":"2021-03-11","REF_FRAME":"TEME","MEAN_ANOMALY":"300.4824","APOAPSIS":"548.462","INCLINATION":"53.0571","MEAN_MOTION_DDOT":"0.0000000000000","MEAN_ELEMENT_THEORY":"SGP4","REV_AT_EPOCH":"5579","CENTER_NAME":"EARTH","PERIOD":"95.593","EPOCH":"2022-03-03T21:59:26.363904","NORAD_CAT_ID":"47804","ELEMENT_SET_NO":"999","RA_OF_ASC_NODE":"336.2219","TIME_SYSTEM":"UTC","OBJECT_ID":"2021-018T","ARG_OF_PERICENTER":"59.6340","SEMIMAJOR_AXIS":"6925.370","ECCENTRICITY":"0.00017720","MEAN_MOTION_DOT":"0.00000105","OBJECT_NAME":"STARLINK-2385","BSTAR":"0.00002598300000","FILE":"3343255","MEAN_MOTION":"15.06393159","TLE_LINE2":"2 47804  53.0571 336.2219 0001772  59.6340 300.4824 15.06393159 55795","GP_ID":"197768589","SITE":"AFETR","PERIAPSIS":"546.007"},{"CENTER_NAME":"EARTH","PERIOD":"95.592","NORAD_CAT_ID":"47805","EPOCH":"2022-03-03T17:27:22.468032","ELEMENT_SET_NO":"999","RA_OF_ASC_NODE":"337.0632","TIME_SYSTEM":"UTC","EPHEMERIS_TYPE":"0","CLASSIFICATION_TYPE":"U","RCS_SIZE":"LARGE","OBJECT_TYPE":"PAYLOAD","MEAN_ANOMALY":"303.1083","DECAY_DATE":null,"TLE_LINE1":"1 47805U 21018U   22062.72734338  .00000733  00000-0  68117-4 0  9995","REF_FRAME":"TEME","LAUNCH_DATE":"2021-03-11","COUNTRY_CODE":"US","APOAPSIS":"548.392","MEAN_MOTION_DDOT":"0.0000000000000","INCLINATION":"53.0567","MEAN_ELEMENT_THEORY":"SGP4","REV_AT_EPOCH":"5577","MEAN_MOTION_DOT":"0.00000733","ECCENTRICITY":"0.00016870","OBJECT_NAME":"STARLINK-2386","FILE":"3343255","BSTAR":"0.00006811700000","MEAN_MOTION":"15.06396629","TLE_LINE2":"2 47805  53.0567 337.0632 0001687  57.0068 303.1083 15.06396629 55773","GP_ID":"197766837","SITE":"AFETR","PERIAPSIS":"546.056","OBJECT_ID":"2021-018U","ARG_OF_PERICENTER":"57.0068","SEMIMAJOR_AXIS":"6925.359"},{"ECCENTRICITY":"0.00019970","MEAN_MOTION_DOT":"0.00002106","OBJECT_NAME":"STARLINK-2387","FILE":"3342689","BSTAR":"0.00016022000000","MEAN_MOTION":"15.06409765","GP_ID":"197707170","TLE_LINE2":"2 47806  53.0551 354.0387 0001997  56.3798 303.7382 15.06409765 55559","SITE":"AFETR","PERIAPSIS":"545.801","OBJECT_ID":"2021-018V","ARG_OF_PERICENTER":"56.3798","SEMIMAJOR_AXIS":"6925.319","CENTER_NAME":"EARTH","PERIOD":"95.592","NORAD_CAT_ID":"47806","EPOCH":"2022-03-03T06:56:24.287136","ELEMENT_SET_NO":"999","RA_OF_ASC_NODE":"354.0387","TIME_SYSTEM":"UTC","EPHEMERIS_TYPE":"0","CLASSIFICATION_TYPE":"U","RCS_SIZE":"LARGE","OBJECT_TYPE":"PAYLOAD","MEAN_ANOMALY":"303.7382","TLE_LINE1":"1 47806U 21018V   22062.28916999  .00002106  00000-0  16022-3 0  9995","LAUNCH_DATE":"2021-03-11","DECAY_DATE":null,"COUNTRY_CODE":"US","REF_FRAME":"TEME","APOAPSIS":"548.567","MEAN_MOTION_DDOT":"0.0000000000000","INCLINATION":"53.0551","REV_AT_EPOCH":"5555","MEAN_ELEMENT_THEORY":"SGP4"},{"MEAN_MOTION_DDOT":"0.0000000000000","INCLINATION":"53.0573","MEAN_ELEMENT_THEORY":"SGP4","REV_AT_EPOCH":"5592","MEAN_ANOMALY":"302.0609","TLE_LINE1":"1 47807U 21018W   22062.87664481 -.00000331  00000-0 -33128-5 0  9995","REF_FRAME":"TEME","DECAY_DATE":null,"LAUNCH_DATE":"2021-03-11","COUNTRY_CODE":"US","APOAPSIS":"548.530","OBJECT_TYPE":"PAYLOAD","RCS_SIZE":"LARGE","EPHEMERIS_TYPE":"0","CLASSIFICATION_TYPE":"U","TIME_SYSTEM":"UTC","ELEMENT_SET_NO":"999","RA_OF_ASC_NODE":"326.3964","NORAD_CAT_ID":"47807","EPOCH":"2022-03-03T21:02:22.111584","CENTER_NAME":"EARTH","PERIOD":"95.592","OBJECT_ID":"2021-018W","SEMIMAJOR_AXIS":"6925.366","ARG_OF_PERICENTER":"58.0562","TLE_LINE2":"2 47807  53.0573 326.3964 0001876  58.0562 302.0609 15.06394335 55922","GP_ID":"197768339","SITE":"AFETR","PERIAPSIS":"545.932","MEAN_MOTION":"15.06394335","FILE":"3343255","BSTAR":"-0.00000331280000","MEAN_MOTION_DOT":"-0.00000331","ECCENTRICITY":"0.00018760","OBJECT_NAME":"STARLINK-2388"},{"OBJECT_ID":"2021-018X","ARG_OF_PERICENTER":"68.9625","SEMIMAJOR_AXIS":"6925.377","BSTAR":"-0.00000086545000","FILE":"3343255","ECCENTRICITY":"0.00017630","MEAN_MOTION_DOT":"-0.00000294","OBJECT_NAME":"STARLINK-2389","GP_ID":"197768089","TLE_LINE2":"2 47808  53.0568 351.5813 0001763  68.9625 291.1552 15.06390810 55632","SITE":"AFETR","PERIAPSIS":"546.021","MEAN_MOTION":"15.06390810","RCS_SIZE":"LARGE","OBJECT_TYPE":"PAYLOAD","EPHEMERIS_TYPE":"0","CLASSIFICATION_TYPE":"U","INCLINATION":"53.0568","MEAN_MOTION_DDOT":"0.0000000000000","MEAN_ELEMENT_THEORY":"SGP4","REV_AT_EPOCH":"5563","TLE_LINE1":"1 47808U 21018X   22062.83932975 -.00000294  00000-0 -86545-6 0  9998","LAUNCH_DATE":"2021-03-11","DECAY_DATE":null,"COUNTRY_CODE":"US","REF_FRAME":"TEME","MEAN_ANOMALY":"291.1552","APOAPSIS":"548.463","EPOCH":"2022-03-03T20:08:38.090400","NORAD_CAT_ID":"47808","CENTER_NAME":"EARTH","PERIOD":"95.593","TIME_SYSTEM":"UTC","ELEMENT_SET_NO":"999","RA_OF_ASC_NODE":"351.5813"},{"EPHEMERIS_TYPE":"0","CLASSIFICATION_TYPE":"U","RCS_SIZE":"LARGE","OBJECT_TYPE":"PAYLOAD","MEAN_ANOMALY":"300.0145","REF_FRAME":"TEME","TLE_LINE1":"1 47809U 21018Y   22062.84438159  .00004822  00000-0  34230-3 0  9995","DECAY_DATE":null,"LAUNCH_DATE":"2021-03-11","COUNTRY_CODE":"US","APOAPSIS":"548.343","MEAN_MOTION_DDOT":"0.0000000000000","INCLINATION":"53.0563","MEAN_ELEMENT_THEORY":"SGP4","REV_AT_EPOCH":"5556","CENTER_NAME":"EARTH","PERIOD":"95.591","NORAD_CAT_ID":"47809","EPOCH":"2022-03-03T20:15:54.569376","ELEMENT_SET_NO":"999","RA_OF_ASC_NODE":"356.5378","TIME_SYSTEM":"UTC","OBJECT_ID":"2021-018Y","ARG_OF_PERICENTER":"60.1011","SEMIMAJOR_AXIS":"6925.309","ECCENTRICITY":"0.00016880","MEAN_MOTION_DOT":"0.00004822","OBJECT_NAME":"STARLINK-2390","FILE":"3343255","BSTAR":"0.00034230000000","MEAN_MOTION":"15.06412967","GP_ID":"197767338","TLE_LINE2":"2 47809  53.0563 356.5378 0001688  60.1011 300.0145 15.06412967 55566","PERIAPSIS":"546.005","SITE":"AFETR"},{"PERIOD":"95.593","CENTER_NAME":"EARTH","EPOCH":"2022-03-03T20:51:45.395424","NORAD_CAT_ID":"47810","RA_OF_ASC_NODE":"6.4411","ELEMENT_SET_NO":"999","TIME_SYSTEM":"UTC","CLASSIFICATION_TYPE":"U","EPHEMERIS_TYPE":"0","OBJECT_TYPE":"PAYLOAD","RCS_SIZE":"LARGE","APOAPSIS":"548.429","DECAY_DATE":null,"TLE_LINE1":"1 47810U 21018Z   22062.86927541 -.00000242  00000-0  26358-5 0  9994","COUNTRY_CODE":"US","LAUNCH_DATE":"2021-03-11","REF_FRAME":"TEME","MEAN_ANOMALY":"295.6039","REV_AT_EPOCH":"5542","MEAN_ELEMENT_THEORY":"SGP4","INCLINATION":"53.0562","MEAN_MOTION_DDOT":"0.0000000000000","OBJECT_NAME":"STARLINK-2391","MEAN_MOTION_DOT":"-0.00000242","ECCENTRICITY":"0.00017030","BSTAR":"0.00000263580000","FILE":"3343255","MEAN_MOTION":"15.06388244","PERIAPSIS":"546.070","SITE":"AFETR","TLE_LINE2":"2 47810  53.0562   6.4411 0001703  64.5126 295.6039 15.06388244 55425","GP_ID":"197767588","ARG_OF_PERICENTER":"64.5126","SEMIMAJOR_AXIS":"6925.385","OBJECT_ID":"2021-018Z"},{"RA_OF_ASC_NODE":"336.2610","ELEMENT_SET_NO":"999","TIME_SYSTEM":"UTC","PERIOD":"95.592","CENTER_NAME":"EARTH","NORAD_CAT_ID":"47811","EPOCH":"2022-03-03T21:48:48.747456","APOAPSIS":"548.404","MEAN_ANOMALY":"299.2531","DECAY_DATE":null,"TLE_LINE1":"1 47811U 21018AA  22062.90889754  .00003728  00000-0  26902-3 0  9997","COUNTRY_CODE":"US","LAUNCH_DATE":"2021-03-11","REF_FRAME":"TEME","REV_AT_EPOCH":"5585","MEAN_ELEMENT_THEORY":"SGP4","MEAN_MOTION_DDOT":"0.0000000000000","INCLINATION":"53.0546","CLASSIFICATION_TYPE":"U","EPHEMERIS_TYPE":"0","OBJECT_TYPE":"PAYLOAD","RCS_SIZE":"LARGE","MEAN_MOTION":"15.06407191","PERIAPSIS":"545.979","SITE":"AFETR","TLE_LINE2":"2 47811  53.0546 336.2610 0001751  60.8634 299.2531 15.06407191 55856","GP_ID":"197767839","OBJECT_NAME":"STARLINK-2392","MEAN_MOTION_DOT":"0.00003728","ECCENTRICITY":"0.00017510","FILE":"3343255","BSTAR":"0.00026902000000","SEMIMAJOR_AXIS":"6925.327","ARG_OF_PERICENTER":"60.8634","OBJECT_ID":"2021-018AA"},{"PERIAPSIS":"546.010","SITE":"AFETR","TLE_LINE2":"2 47812  53.0576   7.8725 0001729  60.4355 299.6806 15.06402031 55317","GP_ID":"197768590","MEAN_MOTION":"15.06402031","FILE":"3343255","BSTAR":"-0.00004210200000","OBJECT_NAME":"STARLINK-2393","ECCENTRICITY":"0.00017290","MEAN_MOTION_DOT":"-0.00000909","SEMIMAJOR_AXIS":"6925.342","ARG_OF_PERICENTER":"60.4355","OBJECT_ID":"2021-018AB","TIME_SYSTEM":"UTC","RA_OF_ASC_NODE":"7.8725","ELEMENT_SET_NO":"999","NORAD_CAT_ID":"47812","EPOCH":"2022-03-03T13:09:58.450752","PERIOD":"95.592","CENTER_NAME":"EARTH","REV_AT_EPOCH":"5531","MEAN_ELEMENT_THEORY":"SGP4","MEAN_MOTION_DDOT":"0.0000000000000","INCLINATION":"53.0576","APOAPSIS":"548.405","MEAN_ANOMALY":"299.6806","COUNTRY_CODE":"US","TLE_LINE1":"1 47812U 21018AB  22062.54859318 -.00000909  00000-0 -42102-4 0  9992","DECAY_DATE":null,"LAUNCH_DATE":"2021-03-11","REF_FRAME":"TEME","RCS_SIZE":"LARGE","OBJECT_TYPE":"PAYLOAD","CLASSIFICATION_TYPE":"U","EPHEMERIS_TYPE":"0"}];
